{
    "links": {
        "self": "http://www.neowsapp.com/rest/v1/neo/3989398?api_key=iIulBulltgU6a56xZRHN4H3l9WmuAYTsLGpBGhQ2"
    },
    "id": "3989398",
    "neo_reference_id": "3989398",
    "name": "(2020 BO15)",
    "designation": "2020 BO15",
    "nasa_jpl_url": "http://ssd.jpl.nasa.gov/sbdb.cgi?sstr=3989398",
    "absolute_magnitude_h": 26.693,
    "estimated_diameter": {
        "kilometers": {
            "estimated_diameter_min": 0.0121886323,
            "estimated_diameter_max": 0.0272546104
        },
        "meters": {
            "estimated_diameter_min": 12.1886323259,
            "estimated_diameter_max": 27.2546104334
        },
        "miles": {
            "estimated_diameter_min": 0.0075736627,
            "estimated_diameter_max": 0.0169352245
        },
        "feet": {
            "estimated_diameter_min": 39.98895248,
            "estimated_diameter_max": 89.4180160943
        }
    },
    "is_potentially_hazardous_asteroid": false,
    "close_approach_data": [
        {
            "close_approach_date": "2020-01-18",
            "close_approach_date_full": "2020-Jan-18 20:54",
            "epoch_date_close_approach": 1579380840000,
            "relative_velocity": {
                "kilometers_per_second": "7.4779313346",
                "kilometers_per_hour": "26920.5528044098",
                "miles_per_hour": "16727.3846022734"
            },
            "miss_distance": {
                "astronomical": "0.0135857997",
                "lunar": "5.2848760833",
                "kilometers": "2032406.697366639",
                "miles": "1262878.9612680582"
            },
            "orbiting_body": "Earth"
        },
        {
            "close_approach_date": "2063-10-05",
            "close_approach_date_full": "2063-Oct-05 14:57",
            "epoch_date_close_approach": 2958821820000,
            "relative_velocity": {
                "kilometers_per_second": "18.5832142309",
                "kilometers_per_hour": "66899.5712312828",
                "miles_per_hour": "41568.7919131268"
            },
            "miss_distance": {
                "astronomical": "0.4099446127",
                "lunar": "159.4684543403",
                "kilometers": "61326840.877894949",
                "miles": "38106731.8888863362"
            },
            "orbiting_body": "Earth"
        }
    ],
    "orbital_data": {
        "orbit_id": "1",
        "orbit_determination_date": "2020-02-02 13:42:06",
        "first_observation_date": "2020-01-26",
        "last_observation_date": "2020-02-02",
        "data_arc_in_days": 7,
        "observations_used": 10,
        "orbit_uncertainty": "8",
        "minimum_orbit_intersection": ".00543644",
        "jupiter_tisserand_invariant": "4.557",
        "epoch_osculation": "2458876.5",
        "eccentricity": ".3580419854543185",
        "semi_major_axis": "1.454552577198574",
        "inclination": "6.974138300136875",
        "ascending_node_longitude": "302.3586770225829",
        "orbital_period": "640.7558251978901",
        "perihelion_distance": ".9337616845107005",
        "perihelion_argument": "140.5247191134493",
        "aphelion_distance": "1.975343469886447",
        "perihelion_time": "2458838.365216680688",
        "mean_anomaly": "21.42551258228893",
        "mean_motion": ".561836484106591",
        "equinox": "J2000",
        "orbit_class": {
            "orbit_class_type": "APO",
            "orbit_class_description": "Near-Earth asteroid orbits which cross the Earth’s orbit similar to that of 1862 Apollo",
            "orbit_class_range": "a (semi-major axis) > 1.0 AU; q (perihelion) < 1.017 AU"
        }
    },
    "is_sentry_object": false
}